NORAD_CAT_ID,OBJECT_NAME,OBJECT_TYPE,EPOCH,MEAN_MOTION,ECCENTRICITY,INCLINATION,RA_OF_ASC_NODE,ARG_OF_PERICENTER,MEAN_ANOMALY,BSTAR,MEAN_MOTION_DOT,MEAN_MOTION_DDOT,TLE_LINE0,TLE_LINE1,TLE_LINE2,SEMIMAJOR_AXIS,PERIOD,APOGEE,PERIGEE,DECAYED
52986.0,STARLINK-4260,PAYLOAD,2024-07-28 05:47:08,15.08838859,0.0001408,53.2152,220.2584,90.9337,269.1816,-2.221e-05,-6.41e-06,0.0,0 STARLINK-4260,1 52986U 22076A   24210.24107222 -.00000641  00000-0 -22210-4 0  9990,2 52986  53.2152 220.2584 0001408  90.9337 269.1816 15.08838859114326,6917.884,95.438,540.723,538.775,0.0
52986.0,STARLINK-4260,PAYLOAD,2024-07-28 10:33:18,15.08838737,0.0001388,53.2156,219.3667,87.6389,272.4762,-2.9528e-05,-7.58e-06,0.0,0 STARLINK-4260,1 52986U 22076A   24210.43979253 -.00000758  00000-0 -29528-4 0  9990,2 52986  53.2156 219.3667 0001388  87.6389 272.4762 15.08838737113880,6917.884,95.438,540.709,538.789,0.0
52986.0,STARLINK-4260,PAYLOAD,2024-07-29 10:24:04,15.08838999,0.0001347,53.2154,214.906,85.132,274.9826,5.1244e-05,5.28e-06,0.0,0 STARLINK-4260,1 52986U 22076A   24211.43339001  .00000528  00000-0  51244-4 0  9995,2 52986  53.2154 214.9060 0001347  85.1320 274.9826 15.08838999114507,6917.883,95.438,540.68,538.817,0.0
52986.0,STARLINK-4260,PAYLOAD,2024-07-29 16:45:36,15.08852546,0.0001388,53.2159,213.7166,88.1512,271.9639,6.5508e-05,7.55e-06,0.0,0 STARLINK-4260,1 52986U 22076A   24211.69833975  .00000755  00000-0  65508-4 0  9992,2 52986  53.2159 213.7166 0001388  88.1512 271.9639 15.08852546114544,6917.842,95.437,540.667,538.747,0.0
52986.0,STARLINK-4260,PAYLOAD,2024-07-30 10:14:51,15.08834074,0.0001314,53.2156,210.4455,86.2944,273.8198,1.7893e-05,-3e-08,0.0,0 STARLINK-4260,1 52986U 22076A   24212.42698902 -.00000003  00000-0  17893-4 0  9994,2 52986  53.2156 210.4455 0001314  86.2944 273.8198 15.08834074114652,6917.899,95.438,540.673,538.854,0.0
52986.0,STARLINK-4260,PAYLOAD,2024-07-30 16:36:24,15.08833561,0.000131,53.2155,209.2558,85.052,275.0622,1.1683e-05,-1.02e-06,0.0,0 STARLINK-4260,1 52986U 22076A   24212.69195042 -.00000102  00000-0  11683-4 0  9991,2 52986  53.2155 209.2558 0001310  85.0520 275.0622 15.08833561114223,6917.9,95.438,540.671,538.859,0.0
52986.0,STARLINK-4260,PAYLOAD,2024-07-31 06:54:52,15.08837544,0.0001324,53.2157,206.5798,87.6293,272.4851,2.5018e-06,-2.48e-06,0.0,0 STARLINK-4260,1 52986U 22076A   24213.28810893 -.00000248  00000-0  25018-5 0  9994,2 52986  53.2157 206.5798 0001324  87.6293 272.4851 15.08837544114311,6917.888,95.438,540.669,538.837,0.0
52986.0,STARLINK-4260,PAYLOAD,2024-07-31 16:27:11,15.08839012,0.0001322,53.2158,204.7956,87.7515,272.3628,-6.2006e-05,-1.275e-05,0.0,0 STARLINK-4260,1 52986U 22076A   24213.68555065 -.00001275  00000-0 -62006-4 0  9994,2 52986  53.2158 204.7956 0001322  87.7515 272.3628 15.08839012114845,6917.883,95.438,540.663,538.834,0.0
52986.0,STARLINK-4260,PAYLOAD,2024-07-31 22:48:43,15.08841043,8.02e-05,53.2156,203.6062,85.4748,274.6335,-9.4685e-05,-1.794e-05,0.0,0 STARLINK-4260,1 52986U 22076A   24213.95050874 -.00001794  00000-0 -94685-4 0  9996,2 52986  53.2156 203.6062 0000802  85.4748 274.6335 15.08841043114414,6917.877,95.437,540.297,539.187,0.0
52986.0,STARLINK-4260,PAYLOAD,2024-08-01 09:56:26,15.08830991,0.0001348,53.2159,201.5245,87.4025,272.7122,7.8031e-05,9.54e-06,0.0,0 STARLINK-4260,1 52986U 22076A   24214.41419303  .00000954  00000-0  78031-4 0  9996,2 52986  53.2159 201.5245 0001348  87.4025 272.7122 15.08830991114483,6917.908,95.438,540.705,538.84,0.0
52986.0,STARLINK-4260,PAYLOAD,2024-08-01 22:39:31,15.08836871,0.0001358,53.2164,199.1456,88.535,271.5797,0.00012847,1.757e-05,0.0,0 STARLINK-4260,1 52986U 22076A   24214.94411029  .00001757  00000-0  12847-3 0  9995,2 52986  53.2164 199.1456 0001358  88.5350 271.5797 15.08836871114566,6917.89,95.438,540.694,538.816,0.0
52986.0,STARLINK-4260,PAYLOAD,2024-08-02 05:01:03,15.08842778,0.0001372,53.2166,197.9567,94.606,265.5089,0.0001541,2.166e-05,0.0,0 STARLINK-4260,1 52986U 22076A   24215.20906658  .00002166  00000-0  15410-3 0  9996,2 52986  53.2166 197.9567 0001372  94.6060 265.5089 15.08842778115076,6917.872,95.437,540.686,538.788,0.0
52986.0,STARLINK-4260,PAYLOAD,2024-08-02 08:11:49,15.08848894,0.0001372,53.2162,197.3615,91.9015,268.2135,0.00018962,2.732e-05,0.0,0 STARLINK-4260,1 52986U 22076A   24215.34154235  .00002732  00000-0  18962-3 0  9991,2 52986  53.2162 197.3615 0001372  91.9015 268.2135 15.08848894114627,6917.853,95.437,540.667,538.769,0.0
52986.0,STARLINK-4260,PAYLOAD,2024-08-02 16:08:46,15.08836753,0.0001555,53.2163,195.8735,84.86,275.257,1.9189e-05,1.7e-07,0.0,0 STARLINK-4260,1 52986U 22076A   24215.67275585  .00000017  00000-0  19189-4 0  9996,2 52986  53.2163 195.8735 0001555  84.8600 275.2570 15.08836753115148,6917.89,95.438,540.831,538.68,0.0
52986.0,STARLINK-4260,PAYLOAD,2024-08-03 04:51:51,15.08834809,0.000131,53.2159,193.4911,112.6474,247.4657,3.7619e-05,3.11e-06,0.0,0 STARLINK-4260,1 52986U 22076A   24216.20267870  .00000311  00000-0  37619-4 0  9999,2 52986  53.2159 193.4911 0001310 112.6474 247.4657 15.08834809114754,6917.896,95.438,540.668,538.855,0.0
52986.0,STARLINK-4260,PAYLOAD,2024-08-03 22:21:05,15.08843944,0.0001451,53.2163,190.2238,93.2834,266.8324,7.8281e-05,9.58e-06,0.0,0 STARLINK-4260,1 52986U 22076A   24216.93131520  .00000958  00000-0  78281-4 0  9998,2 52986  53.2163 190.2238 0001451  93.2834 266.8324 15.08843944114864,6917.868,95.437,540.737,538.73,0.0
52986.0,STARLINK-4260,PAYLOAD,2024-08-04 04:42:37,15.08851255,0.0001439,53.2151,189.0342,91.483,268.6327,0.00019155,2.763e-05,0.0,0 STARLINK-4260,1 52986U 22076A   24217.19627194  .00002763  00000-0  19155-3 0  9994,2 52986  53.2151 189.0342 0001439  91.4830 268.6327 15.08851255115379,6917.846,95.437,540.706,538.716,0.0
52986.0,STARLINK-4260,PAYLOAD,2024-08-04 22:11:52,15.08842916,0.0001461,53.2152,185.7632,91.3009,268.8151,0.00042335,6.457e-05,0.0,0 STARLINK-4260,1 52986U 22076A   24217.92491718  .00006457  00000-0  42335-3 0  9996,2 52986  53.2152 185.7632 0001461  91.3009 268.8151 15.08842916115019,6917.871,95.437,540.747,538.726,0.0
52986.0,STARLINK-4260,PAYLOAD,2024-08-05 04:33:24,15.08852585,0.000153,53.216,184.5735,96.1045,264.0122,0.00031831,4.783e-05,0.0,0 STARLINK-4260,1 52986U 22076A   24218.18987145  .00004783  00000-0  31831-3 0  9998,2 52986  53.2160 184.5735 0001530  96.1045 264.0122 15.08852585115524,6917.842,95.437,540.765,538.648,0.0
52986.0,STARLINK-4260,PAYLOAD,2024-08-06 04:24:13,15.08825078,0.0001403,53.2158,180.1147,87.9944,272.1209,-0.00016398,-2.896e-05,0.0,0 STARLINK-4260,1 52986U 22076A   24219.18348936 -.00002896  00000-0 -16398-3 0  9994,2 52986  53.2158 180.1147 0001403  87.9944 272.1209 15.08825078115674,6917.926,95.438,540.762,538.82,0.0
52986.0,STARLINK-4260,PAYLOAD,2024-08-06 13:56:32,15.08827615,0.0001506,53.217,178.3321,89.9074,270.2091,-0.00013353,-2.412e-05,0.0,0 STARLINK-4260,1 52986U 22076A   24219.58093090 -.00002412  00000-0 -13353-3 0  9998,2 52986  53.2170 178.3321 0001506  89.9074 270.2091 15.08827615115263,6917.918,95.438,540.825,538.741,0.0
52986.0,STARLINK-4260,PAYLOAD,2024-08-06 20:18:04,15.08834787,0.0001234,53.216,177.1401,84.5973,275.516,3.1335e-05,2.11e-06,0.0,0 STARLINK-4260,1 52986U 22076A   24219.84588919  .00000211  00000-0  31335-4 0  9990,2 52986  53.2160 177.1401 0001234  84.5973 275.5160 15.08834787115774,6917.896,95.438,540.615,538.908,0.0
52986.0,STARLINK-4260,PAYLOAD,2024-08-07 04:15:00,15.08848441,0.000131,53.2157,175.6543,88.5718,271.5424,0.00044553,6.811e-05,0.0,0 STARLINK-4260,1 52986U 22076A   24220.17708619  .00006811  00000-0  44553-3 0  9996,2 52986  53.2157 175.6543 0001310  88.5718 271.5424 15.08848441115823,6917.855,95.437,540.626,538.813,0.0
52986.0,STARLINK-4260,PAYLOAD,2024-08-08 04:05:47,15.088581,0.0001621,53.2171,171.1936,78.4918,281.6256,0.00049596,7.618e-05,0.0,0 STARLINK-4260,1 52986U 22076A   24221.17068397  .00007618  00000-0  49596-3 0  9997,2 52986  53.2171 171.1936 0001621  78.4918 281.6256 15.08858100115504,6917.825,95.436,540.811,538.569,0.0
52986.0,STARLINK-4260,PAYLOAD,2024-08-09 05:31:56,15.08857921,0.0001561,53.217,166.4366,87.6563,272.4608,0.0002613,3.875e-05,0.0,0 STARLINK-4260,1 52986U 22076A   24222.23051647  .00003875  00000-0  26130-3 0  9995,2 52986  53.2170 166.4366 0001561  87.6563 272.4608 15.08857921116137,6917.826,95.436,540.77,538.611,0.0
52986.0,STARLINK-4260,PAYLOAD,2024-08-09 13:28:53,15.08836982,0.0002406,53.2177,164.9443,72.0788,288.0467,-0.00013367,-2.415e-05,0.0,0 STARLINK-4260,1 52986U 22076A   24222.56172596 -.00002415  00000-0 -13367-3 0  9997,2 52986  53.2177 164.9443 0002406  72.0788 288.0467 15.08836982115712,6917.89,95.438,541.419,538.09,0.0
52986.0,STARLINK-4260,PAYLOAD,2024-08-09 19:50:25,15.08838797,0.0001936,53.2163,163.7596,76.4504,283.6704,-0.00012288,-2.243e-05,0.0,0 STARLINK-4260,1 52986U 22076A   24222.82668363 -.00002243  00000-0 -12288-3 0  9998,2 52986  53.2163 163.7596 0001936  76.4504 283.6704 15.08838797116222,6917.884,95.438,541.088,538.41,0.0
52986.0,STARLINK-4260,PAYLOAD,2024-08-10 05:22:43,15.08854161,0.0001651,53.2166,161.9716,68.2048,291.912,0.00031584,4.744e-05,0.0,0 STARLINK-4260,1 52986U 22076A   24223.22411842  .00004744  00000-0  31584-3 0  9997,2 52986  53.2166 161.9716 0001651  68.2048 291.9120 15.08854161116288,6917.837,95.437,540.844,538.56,0.0
52986.0,STARLINK-4260,PAYLOAD,2024-08-10 19:41:12,15.08838423,0.0001199,53.2152,159.2935,119.3849,240.7263,2.8155e-06,-2.43e-06,0.0,0 STARLINK-4260,1 52986U 22076A   24223.82028282 -.00000243  00000-0  28155-5 0  9998,2 52986  53.2152 159.2935 0001199 119.3849 240.7263 15.08838423116373,6917.885,95.438,540.58,538.921,0.0
52986.0,STARLINK-4260,PAYLOAD,2024-08-11 02:02:44,15.0885254,0.0001536,53.2153,158.1111,102.476,257.6404,0.00042362,6.463e-05,0.0,0 STARLINK-4260,1 52986U 22076A   24224.08523941  .00006463  00000-0  42362-3 0  9992,2 52986  53.2153 158.1111 0001536 102.4760 257.6404 15.08852540116413,6917.842,95.437,540.77,538.644,0.0
